line1,line2,classification,launch_year,launch_number,launch_piece,epoch_year,epoch_day,mean_motion_dot,mean_motion_ddot,bstar,ephemeris_type,element_number,satellite_number,inclination,ra_of_asc_node,eccentricity,arg_of_perigee,mean_anomaly,mean_motion,rev_at_epoch,datetime,x,y,z,cartesian_cords,NORAD_CAT_ID,OBJECT_TYPE,SATNAME,SITE,Operator/Owner,Users,Purpose,anom_inclination,anom_ra_of_asc_node,anom_eccentricity,anom_arg_of_perigee,anom_mean_anomaly,anom_mean_motion,anom_count
1 00829U 64038A   21261.41345574  .00000123  00000-0  47501-4 0  9992,2 00829  60.8237  65.5929 2978201 247.7275  78.3568  9.14260928856441,U,64,038,A,21,261.41345574,1.23e-06,0.0,0.0,0,999,829,60.8237,65.5929,0.2978201,247.7275,78.3568,9.14260928,85644,2021-09-18 09:55:22.575936,4147.145862152549,9022.653000379376,-8.779035468625459,[ 4.14714586e+03  9.02265300e+03 -8.77903547e+00],829,PAYLOAD,ELEKTRON 3,TTMTR,0,0,0,0.0,0.0,0.0,0.0,0.0,0.0,0.0
1 00829U 64038A   21260.42914153  .00000166  00000-0  58586-4 0  9999,2 00829  60.8234  66.9394 2978195 247.4663  78.6463  9.14260428856351,U,64,038,A,21,260.42914153,1.66e-06,0.0,0.0,0,999,829,60.8234,66.9394,0.2978195,247.4663,78.6463,9.14260428,85635,2021-09-17 10:17:57.828192,3939.543286183416,9130.537541008143,-8.334202525371005,[ 3.93954329e+03  9.13053754e+03 -8.33420253e+00],829,PAYLOAD,ELEKTRON 3,TTMTR,0,0,0,0.0,0.0,0.0,0.0,0.0,0.0,0.0
1 00829U 64038A   21259.88230058  .00000198  00000-0  66972-4 0  9995,2 00829  60.8233  67.6875 2978193 247.3212  78.8073  9.14260076856302,U,64,038,A,21,259.88230058,1.98e-06,0.0,0.0,0,999,829,60.8233,67.6875,0.2978193,247.3212,78.8073,9.14260076,85630,2021-09-16 21:10:30.770112,3823.0020331382266,9188.40831051455,-8.106039790000356,[ 3.82300203e+03  9.18840831e+03 -8.10603979e+00],829,PAYLOAD,ELEKTRON 3,TTMTR,0,0,0,0.0,0.0,0.0,0.0,0.0,0.0,0.0
1 00829U 64038A   21259.44482730  .00000230  00000-0  75467-4 0  9999,2 00829  60.8231  68.2859 2978190 247.2049  78.9367  9.14259885856261,U,64,038,A,21,259.4448273,2.3e-06,0.0,0.0,0,999,829,60.8231,68.2859,0.297819,247.2049,78.9367,9.14259885,85626,2021-09-16 10:40:33.078720,3729.1733464159533,9233.653810132237,-7.900933050494601,[ 3.72917335e+03  9.23365381e+03 -7.90093305e+00],829,PAYLOAD,ELEKTRON 3,TTMTR,0,0,0,0.0,0.0,0.0,0.0,0.0,0.0,0.0
1   829U 64038A   21259.11672250  .00000251  00000-0  81034-4 0  9991,2   829  60.8231  68.7347 2978191 247.1179  79.0335  9.14259671856217,U,64,038,A,21,259.1167225,2.51e-06,0.0,0.0,0,999,829,60.8231,68.7347,0.2978191,247.1179,79.0335,9.14259671,85621,2021-09-16 02:48:04.824000,3658.4542658785754,9266.944566568696,-7.755697534509459,[ 3.65845427e+03  9.26694457e+03 -7.75569753e+00],829,PAYLOAD,ELEKTRON 3,TTMTR,0,0,0,0.0,0.0,0.0,0.0,0.0,0.0,0.0
1 00829U 64038A   21258.46051333  .00000287  00000-0  90494-4 0  9990,2 00829  60.8230  69.6326 2978185 246.9433  79.2281  9.14259119856170,U,64,038,A,21,258.46051333,2.87e-06,0.0,0.0,0,999,829,60.823,69.6326,0.2978185,246.9433,79.2281,9.14259119,85617,2021-09-15 11:03:08.351712,3516.1088236738005,9331.950907448123,-7.468930434984655,[ 3.51610882e+03  9.33195091e+03 -7.46893043e+00],829,PAYLOAD,ELEKTRON 3,TTMTR,0,0,0,0.0,0.0,0.0,0.0,0.0,0.0,0.0
1 00829U 64038A   21257.47619800  .00000338  00000-0  10369-3 0  9998,2 00829  60.8229  70.9792 2978189 246.6818  79.5203  9.14258459856081,U,64,038,A,21,257.476198,3.38e-06,0.0,0.0,0,999,829,60.8229,70.9792,0.2978189,246.6818,79.5203,9.14258459,85608,2021-09-14 11:25:43.507200,3300.488302999993,9425.338890350968,-7.005954629473007,[ 3.30048830e+03  9.42533889e+03 -7.00595463e+00],829,PAYLOAD,ELEKTRON 3,TTMTR,0,0,0,0.0,0.0,0.0,0.0,0.0,0.0,0.0
1 00829U 64038A   21256.81998743  .00000350  00000-0  10685-3 0  9996,2 00829  60.8228  71.8770 2978198 246.5075  79.7153  9.14257924856026,U,64,038,A,21,256.81998743,3.5e-06,0.0,0.0,0,999,829,60.8228,71.877,0.2978198,246.5075,79.7153,9.14257924,85602,2021-09-13 19:40:46.913952,3155.3718030290565,9484.82850062618,-6.71498727890501,[ 3.15537180e+03  9.48482850e+03 -6.71498728e+00],829,PAYLOAD,ELEKTRON 3,TTMTR,0,0,0,0.0,0.0,0.0,0.0,0.0,0.0,0.0
1 00829U 64038A   21256.49188195  .00000354  00000-0  10801-3 0  9996,2 00829  60.8227  72.3259 2978201 246.4201  79.8133  9.14257718855993,U,64,038,A,21,256.49188195,3.54e-06,0.0,0.0,0,999,829,60.8227,72.3259,0.2978201,246.4201,79.8133,9.14257718,85599,2021-09-13 11:48:18.600480,3082.4170265220996,9513.755107484547,-6.560279720250245,[ 3.08241703e+03  9.51375511e+03 -6.56027972e+00],829,PAYLOAD,ELEKTRON 3,TTMTR,0,0,0,0.0,0.0,0.0,0.0,0.0,0.0,0.0
1 00829U 64038A   21255.83567069  .00000349  00000-0  10669-3 0  9990,2 00829  60.8227  73.2236 2978206 246.2459  80.0089  9.14257238855931,U,64,038,A,21,255.83567069,3.49e-06,0.0,0.0,0,999,829,60.8227,73.2236,0.2978206,246.2459,80.0089,9.14257238,85593,2021-09-12 20:03:21.947616,2935.7421829302693,9569.889689177902,-6.251639432263317,[ 2.93574218e+03  9.56988969e+03 -6.25163943e+00],829,PAYLOAD,ELEKTRON 3,TTMTR,0,0,0,0.0,0.0,0.0,0.0,0.0,0.0,0.0
1 00829U 64038A   21255.50756526  .00000333  00000-0  10244-3 0  9994,2 00829  60.8226  73.6726 2978216 246.1584  80.1071  9.14256928855901,U,64,038,A,21,255.50756526,3.33e-06,0.0,0.0,0,999,829,60.8226,73.6726,0.2978216,246.1584,80.1071,9.14256928,85590,2021-09-12 12:10:53.638464,2862.013587372791,9597.132062526363,-6.110052586050884,[ 2.86201359e+03  9.59713206e+03 -6.11005259e+00],829,PAYLOAD,ELEKTRON 3,TTMTR,0,0,0,0.0,0.0,0.0,0.0,0.0,0.0,0.0
1 00829U 64038A   21254.85135347  .00000302  00000-0  94408-4 0  9994,2 00829  60.8225  74.5703 2978221 245.9842  80.3033  9.14256442855849,U,64,038,A,21,254.85135347,3.02e-06,0.0,0.0,0,999,829,60.8225,74.5703,0.2978221,245.9842,80.3033,9.14256442,85584,2021-09-11 20:25:56.939808,2713.846439907522,9649.876010706246,-5.792930015460088,[ 2.71384644e+03  9.64987601e+03 -5.79293002e+00],829,PAYLOAD,ELEKTRON 3,TTMTR,0,0,0,0.0,0.0,0.0,0.0,0.0,0.0,0.0
1 00829U 64038A   21254.52324733  .00000289  00000-0  90819-4 0  9993,2 00829  60.8225  75.0193 2978224 245.8966  80.4020  9.14256307855811,U,64,038,A,21,254.52324733,2.89e-06,0.0,0.0,0,999,829,60.8225,75.0193,0.2978224,245.8966,80.402,9.14256307,85581,2021-09-11 12:33:28.569312,2639.3919428836134,9675.418276672046,-5.646686291955826,[ 2.63939194e+03  9.67541828e+03 -5.64668629e+00],829,PAYLOAD,ELEKTRON 3,TTMTR,0,0,0,0.0,0.0,0.0,0.0,0.0,0.0,0.0
1 00829U 64038A   21253.86703514  .00000237  00000-0  77282-4 0  9999,2 00829  60.8224  75.9170 2978223 245.7223  80.5988  9.14255829855753,U,64,038,A,21,253.86703514,2.37e-06,0.0,0.0,0,999,829,60.8224,75.917,0.2978223,245.7223,80.5988,9.14255829,85575,2021-09-10 20:48:31.836096,2489.8234802254374,9724.726318080853,-5.3459514565234985,[ 2.48982348e+03  9.72472632e+03 -5.34595146e+00],829,PAYLOAD,ELEKTRON 3,TTMTR,0,0,0,0.0,0.0,0.0,0.0,0.0,0.0,0.0
1 00829U 64038A   21253.53892883  .00000213  00000-0  71103-4 0  9991,2 00829  60.8224  76.3659 2978222 245.6347  80.6979  9.14255694855723,U,64,038,A,21,253.53892883,2.13e-06,0.0,0.0,0,999,829,60.8224,76.3659,0.2978222,245.6347,80.6979,9.14255694,85572,2021-09-10 12:56:03.450912,2414.6951326109875,9748.543554510814,-5.1885375640861255,[ 2.41469513e+03  9.74854355e+03 -5.18853756e+00],829,PAYLOAD,ELEKTRON 3,TTMTR,0,0,0,0.0,0.0,0.0,0.0,0.0,0.0,0.0
1 00829U 64038A   21252.44524123  .00000122  00000-0  47184-4 0  9990,2 00829  60.8222  77.8622 2978216 245.3438  81.0277  9.14255068855628,U,64,038,A,21,252.44524123,1.22e-06,0.0,0.0,0,999,829,60.8222,77.8622,0.2978216,245.3438,81.0277,9.14255068,85562,2021-09-09 10:41:08.842272,2162.695384430369,9823.680935678221,-4.659601468585339,[ 2.16269538e+03  9.82368094e+03 -4.65960147e+00],829,PAYLOAD,ELEKTRON 3,TTMTR,0,0,0,0.0,0.0,0.0,0.0,0.0,0.0,0.0
1 00829U 64038A   21251.89839726  .00000097  00000-0  40535-4 0  9990,2 00829  60.8222  78.6102 2978209 245.1986  81.1927  9.14254868855572,U,64,038,A,21,251.89839726,9.7e-07,0.0,0.0,0,999,829,60.8222,78.6102,0.2978209,245.1986,81.1927,9.14254868,85557,2021-09-08 21:33:41.523264,2035.8575663267884,9858.790471181139,-4.400132476358604,[ 2.03585757e+03  9.85879047e+03 -4.40013248e+00],829,PAYLOAD,ELEKTRON 3,TTMTR,0,0,0,0.0,0.0,0.0,0.0,0.0,0.0,0.0
1 00829U 64038A   21251.24218471  .00000075  00000-0  34893-4 0  9993,2 00829  60.8221  79.5080 2978200 245.0241  81.3914  9.14254632855511,U,64,038,A,21,251.24218471,7.5e-07,0.0,0.0,0,999,829,60.8221,79.508,0.29782,245.0241,81.3914,9.14254632,85551,2021-09-08 05:48:44.758944,1882.8952685716927,9898.78604931689,-4.078807828925723,[ 1.88289527e+03  9.89878605e+03 -4.07880783e+00],829,PAYLOAD,ELEKTRON 3,TTMTR,0,0,0,0.0,0.0,0.0,0.0,0.0,0.0,0.0
1   829U 64038A   21250.69534127  .00000035  00000-0  24412-4 0  9992,2   829  60.8220  80.2561 2978192 244.8786  81.5574  9.14254222855445,U,64,038,A,21,250.69534127,3.5e-07,0.0,0.0,0,999,829,60.822,80.2561,0.2978192,244.8786,81.5574,9.14254222,85544,2021-09-07 16:41:17.485728,1754.8605847125439,9930.310822160138,-3.8056879358529083,[ 1.75486058e+03  9.93031082e+03 -3.80568794e+00],829,PAYLOAD,ELEKTRON 3,TTMTR,0,0,0,0.0,0.0,0.0,0.0,0.0,0.0,0.0
1 00829U 64038A   21250.47660390  .00000030  00000-0  23072-4 0  9996,2 00829  60.8219  80.5554 2978189 244.8202  81.6240  9.14254111855445,U,64,038,A,21,250.4766039,3e-07,0.0,0.0,0,999,829,60.8219,80.5554,0.2978189,244.8202,81.624,9.14254111,85544,2021-09-07 11:26:18.576960,1703.5027312123095,9942.464234996853,-3.7091494768535385,[ 1.70350273e+03  9.94246423e+03 -3.70914948e+00],829,PAYLOAD,ELEKTRON 3,TTMTR,0,0,0,0.0,0.0,0.0,0.0,0.0,0.0,0.0
1 00829U 64038A   21249.49228536  .00000046  00000-0  27405-4 0  9999,2 00829  60.8217  81.9020 2978170 244.5585  81.9235  9.14253773855357,U,64,038,A,21,249.49228536,4.6e-07,0.0,0.0,0,999,829,60.8217,81.902,0.297817,244.5585,81.9235,9.14253773,85535,2021-09-06 11:48:53.455104,1471.4374372363686,9993.826870256475,-3.208689391118071,[ 1.47143744e+03  9.99382687e+03 -3.20868939e+00],829,PAYLOAD,ELEKTRON 3,TTMTR,0,0,0,0.0,0.0,0.0,0.0,0.0,0.0,0.0
